[{"OBJECT_NAME":"CBERS 4","OBJECT_ID":"2014-079A","EPOCH":"2026-03-09T23:48:34.091136","MEAN_MOTION":14.35413289,"ECCENTRICITY":6.249e-5,"INCLINATION":98.3477,"RA_OF_ASC_NODE":128.9942,"ARG_OF_PERICENTER":63.727,"MEAN_ANOMALY":296.398,"EPHEMERIS_TYPE":0,"CLASSIFICATION_TYPE":"U","NORAD_CAT_ID":40336,"ELEMENT_SET_NO":999,"REV_AT_EPOCH":58972,"BSTAR":4.6050106e-5,"MEAN_MOTION_DOT":9.0e-7,"MEAN_MOTION_DDOT":0},{"OBJECT_NAME":"NOAA 16 DEB","OBJECT_ID":"2000-055J","EPOCH":"2026-03-08T05:48:25.200576","MEAN_MOTION":14.3429622,"ECCENTRICITY":0.00159007,"INCLINATION":98.7778,"RA_OF_ASC_NODE":175.8988,"ARG_OF_PERICENTER":201.6734,"MEAN_ANOMALY":158.3779,"EPHEMERIS_TYPE":0,"CLASSIFICATION_TYPE":"U","NORAD_CAT_ID":41051,"ELEMENT_SET_NO":999,"REV_AT_EPOCH":53253,"BSTAR":0.0028081093,"MEAN_MOTION_DOT":7.86e-5,"MEAN_MOTION_DDOT":0}]
